[{"OBJECT_NAME":"NUSAT-44 (MARIA MITCHELL)","OBJECT_ID":"2024-043AA","EPOCH":"2026-03-09T22:12:18.524160","MEAN_MOTION":15.29764305,"ECCENTRICITY":0.0007331,"INCLINATION":97.5299,"RA_OF_ASC_NODE":207.7691,"ARG_OF_PERICENTER":214.9017,"MEAN_ANOMALY":145.1743,"EPHEMERIS_TYPE":0,"CLASSIFICATION_TYPE":"U","NORAD_CAT_ID":59122,"ELEMENT_SET_NO":999,"REV_AT_EPOCH":11209,"BSTAR":0.00061063193,"MEAN_MOTION_DOT":0.00017562,"MEAN_MOTION_DDOT":0},{"OBJECT_NAME":"STARLINK-36137","OBJECT_ID":"2025-294D","EPOCH":"2026-03-09T22:54:56.854944","MEAN_MOTION":15.27588717,"ECCENTRICITY":6.499e-5,"INCLINATION":42.9973,"RA_OF_ASC_NODE":36.243,"ARG_OF_PERICENTER":155.8503,"MEAN_ANOMALY":204.2379,"EPHEMERIS_TYPE":0,"CLASSIFICATION_TYPE":"U","NORAD_CAT_ID":67033,"ELEMENT_SET_NO":999,"REV_AT_EPOCH":1484,"BSTAR":0.00083990792,"MEAN_MOTION_DOT":0.00022928,"MEAN_MOTION_DDOT":0}]
